<?xml version="1.0" encoding="UTF-8"?>
<ndm xmlns:xsi="http://www.w3.org/2001/XMLSchema-instance" xsi:noNamespaceSchemaLocation="https://sanaregistry.org/r/ndmxml_unqualified/ndmxml-2.0.0-master-2.0.xsd">
<omm id="CCSDS_OMM_VERS" version="2.0">
<header><CREATION_DATE/><ORIGINATOR/></header><body><segment><metadata><OBJECT_NAME>KUIPER-00147</OBJECT_NAME><OBJECT_ID>2025-217G</OBJECT_ID><CENTER_NAME>EARTH</CENTER_NAME><REF_FRAME>TEME</REF_FRAME><TIME_SYSTEM>UTC</TIME_SYSTEM><MEAN_ELEMENT_THEORY>SGP4</MEAN_ELEMENT_THEORY></metadata><data><meanElements><EPOCH>2025-10-18T19:28:54.103584</EPOCH><MEAN_MOTION>15.35452814</MEAN_MOTION><ECCENTRICITY>.00065825</ECCENTRICITY><INCLINATION>51.8662</INCLINATION><RA_OF_ASC_NODE>330.1048</RA_OF_ASC_NODE><ARG_OF_PERICENTER>176.2860</ARG_OF_PERICENTER><MEAN_ANOMALY>183.8176</MEAN_ANOMALY></meanElements><tleParameters><EPHEMERIS_TYPE>0</EPHEMERIS_TYPE><CLASSIFICATION_TYPE>U</CLASSIFICATION_TYPE><NORAD_CAT_ID>65768</NORAD_CAT_ID><ELEMENT_SET_NO>999</ELEMENT_SET_NO><REV_AT_EPOCH>359</REV_AT_EPOCH><BSTAR>.13036406E-2</BSTAR><MEAN_MOTION_DOT>.45513E-3</MEAN_MOTION_DOT><MEAN_MOTION_DDOT>0</MEAN_MOTION_DDOT></tleParameters></data></segment></body></omm>
<omm id="CCSDS_OMM_VERS" version="2.0">
<header><CREATION_DATE/><ORIGINATOR/></header><body><segment><metadata><OBJECT_NAME>KUIPER-00148</OBJECT_NAME><OBJECT_ID>2025-217H</OBJECT_ID><CENTER_NAME>EARTH</CENTER_NAME><REF_FRAME>TEME</REF_FRAME><TIME_SYSTEM>UTC</TIME_SYSTEM><MEAN_ELEMENT_THEORY>SGP4</MEAN_ELEMENT_THEORY></metadata><data><meanElements><EPOCH>2025-10-18T19:44:22.921728</EPOCH><MEAN_MOTION>15.34707939</MEAN_MOTION><ECCENTRICITY>.00094813</ECCENTRICITY><INCLINATION>51.8620</INCLINATION><RA_OF_ASC_NODE>330.1666</RA_OF_ASC_NODE><ARG_OF_PERICENTER>193.5632</ARG_OF_PERICENTER><MEAN_ANOMALY>166.5100</MEAN_ANOMALY></meanElements><tleParameters><EPHEMERIS_TYPE>0</EPHEMERIS_TYPE><CLASSIFICATION_TYPE>U</CLASSIFICATION_TYPE><NORAD_CAT_ID>65769</NORAD_CAT_ID><ELEMENT_SET_NO>999</ELEMENT_SET_NO><REV_AT_EPOCH>359</REV_AT_EPOCH><BSTAR>.12383751E-2</BSTAR><MEAN_MOTION_DOT>.42205E-3</MEAN_MOTION_DOT><MEAN_MOTION_DDOT>0</MEAN_MOTION_DDOT></tleParameters></data></segment></body></omm>
<omm id="CCSDS_OMM_VERS" version="2.0">
<header><CREATION_DATE/><ORIGINATOR/></header><body><segment><metadata><OBJECT_NAME>KUIPER-00150</OBJECT_NAME><OBJECT_ID>2025-217J</OBJECT_ID><CENTER_NAME>EARTH</CENTER_NAME><REF_FRAME>TEME</REF_FRAME><TIME_SYSTEM>UTC</TIME_SYSTEM><MEAN_ELEMENT_THEORY>SGP4</MEAN_ELEMENT_THEORY></metadata><data><meanElements><EPOCH>2025-10-18T19:41:37.807008</EPOCH><MEAN_MOTION>15.34801047</MEAN_MOTION><ECCENTRICITY>.00089144</ECCENTRICITY><INCLINATION>51.8608</INCLINATION><RA_OF_ASC_NODE>330.1527</RA_OF_ASC_NODE><ARG_OF_PERICENTER>193.8364</ARG_OF_PERICENTER><MEAN_ANOMALY>166.2379</MEAN_ANOMALY></meanElements><tleParameters><EPHEMERIS_TYPE>0</EPHEMERIS_TYPE><CLASSIFICATION_TYPE>U</CLASSIFICATION_TYPE><NORAD_CAT_ID>65770</NORAD_CAT_ID><ELEMENT_SET_NO>999</ELEMENT_SET_NO><REV_AT_EPOCH>359</REV_AT_EPOCH><BSTAR>.12014965E-2</BSTAR><MEAN_MOTION_DOT>.41046E-3</MEAN_MOTION_DOT><MEAN_MOTION_DDOT>0</MEAN_MOTION_DDOT></tleParameters></data></segment></body></omm>
<omm id="CCSDS_OMM_VERS" version="2.0">
<header><CREATION_DATE/><ORIGINATOR/></header><body><segment><metadata><OBJECT_NAME>KUIPER-00151</OBJECT_NAME><OBJECT_ID>2025-217K</OBJECT_ID><CENTER_NAME>EARTH</CENTER_NAME><REF_FRAME>TEME</REF_FRAME><TIME_SYSTEM>UTC</TIME_SYSTEM><MEAN_ELEMENT_THEORY>SGP4</MEAN_ELEMENT_THEORY></metadata><data><meanElements><EPOCH>2025-10-18T22:21:16.363296</EPOCH><MEAN_MOTION>15.36150150</MEAN_MOTION><ECCENTRICITY>.00050473</ECCENTRICITY><INCLINATION>51.8696</INCLINATION><RA_OF_ASC_NODE>329.4154</RA_OF_ASC_NODE><ARG_OF_PERICENTER>160.7174</ARG_OF_PERICENTER><MEAN_ANOMALY>199.4004</MEAN_ANOMALY></meanElements><tleParameters><EPHEMERIS_TYPE>0</EPHEMERIS_TYPE><CLASSIFICATION_TYPE>U</CLASSIFICATION_TYPE><NORAD_CAT_ID>65771</NORAD_CAT_ID><ELEMENT_SET_NO>999</ELEMENT_SET_NO><REV_AT_EPOCH>361</REV_AT_EPOCH><BSTAR>.14551436E-2</BSTAR><MEAN_MOTION_DOT>.52034E-3</MEAN_MOTION_DOT><MEAN_MOTION_DDOT>0</MEAN_MOTION_DDOT></tleParameters></data></segment></body></omm>
<omm id="CCSDS_OMM_VERS" version="2.0">
<header><CREATION_DATE/><ORIGINATOR/></header><body><segment><metadata><OBJECT_NAME>KUIPER-00152</OBJECT_NAME><OBJECT_ID>2025-217L</OBJECT_ID><CENTER_NAME>EARTH</CENTER_NAME><REF_FRAME>TEME</REF_FRAME><TIME_SYSTEM>UTC</TIME_SYSTEM><MEAN_ELEMENT_THEORY>SGP4</MEAN_ELEMENT_THEORY></metadata><data><meanElements><EPOCH>2025-10-18T21:56:25.916640</EPOCH><MEAN_MOTION>15.37263644</MEAN_MOTION><ECCENTRICITY>.00022107</ECCENTRICITY><INCLINATION>51.8743</INCLINATION><RA_OF_ASC_NODE>329.2986</RA_OF_ASC_NODE><ARG_OF_PERICENTER>80.4677</ARG_OF_PERICENTER><MEAN_ANOMALY>279.6559</MEAN_ANOMALY></meanElements><tleParameters><EPHEMERIS_TYPE>0</EPHEMERIS_TYPE><CLASSIFICATION_TYPE>U</CLASSIFICATION_TYPE><NORAD_CAT_ID>65772</NORAD_CAT_ID><ELEMENT_SET_NO>999</ELEMENT_SET_NO><REV_AT_EPOCH>361</REV_AT_EPOCH><BSTAR>.18126007E-2</BSTAR><MEAN_MOTION_DOT>.67413E-3</MEAN_MOTION_DOT><MEAN_MOTION_DDOT>0</MEAN_MOTION_DDOT></tleParameters></data></segment></body></omm>
<omm id="CCSDS_OMM_VERS" version="2.0">
<header><CREATION_DATE/><ORIGINATOR/></header><body><segment><metadata><OBJECT_NAME>KUIPER-00153</OBJECT_NAME><OBJECT_ID>2025-217M</OBJECT_ID><CENTER_NAME>EARTH</CENTER_NAME><REF_FRAME>TEME</REF_FRAME><TIME_SYSTEM>UTC</TIME_SYSTEM><MEAN_ELEMENT_THEORY>SGP4</MEAN_ELEMENT_THEORY></metadata><data><meanElements><EPOCH>2025-10-18T19:37:10.204608</EPOCH><MEAN_MOTION>15.35061023</MEAN_MOTION><ECCENTRICITY>.00079617</ECCENTRICITY><INCLINATION>51.8644</INCLINATION><RA_OF_ASC_NODE>330.1392</RA_OF_ASC_NODE><ARG_OF_PERICENTER>185.6418</ARG_OF_PERICENTER><MEAN_ANOMALY>174.4479</MEAN_ANOMALY></meanElements><tleParameters><EPHEMERIS_TYPE>0</EPHEMERIS_TYPE><CLASSIFICATION_TYPE>U</CLASSIFICATION_TYPE><NORAD_CAT_ID>65773</NORAD_CAT_ID><ELEMENT_SET_NO>999</ELEMENT_SET_NO><REV_AT_EPOCH>359</REV_AT_EPOCH><BSTAR>.15922861E-2</BSTAR><MEAN_MOTION_DOT>.55066E-3</MEAN_MOTION_DOT><MEAN_MOTION_DDOT>0</MEAN_MOTION_DDOT></tleParameters></data></segment></body></omm>
<omm id="CCSDS_OMM_VERS" version="2.0">
<header><CREATION_DATE/><ORIGINATOR/></header><body><segment><metadata><OBJECT_NAME>KUIPER-00155</OBJECT_NAME><OBJECT_ID>2025-217N</OBJECT_ID><CENTER_NAME>EARTH</CENTER_NAME><REF_FRAME>TEME</REF_FRAME><TIME_SYSTEM>UTC</TIME_SYSTEM><MEAN_ELEMENT_THEORY>SGP4</MEAN_ELEMENT_THEORY></metadata><data><meanElements><EPOCH>2025-10-18T22:28:14.568672</EPOCH><MEAN_MOTION>15.35819500</MEAN_MOTION><ECCENTRICITY>.00047122</ECCENTRICITY><INCLINATION>51.8667</INCLINATION><RA_OF_ASC_NODE>329.4435</RA_OF_ASC_NODE><ARG_OF_PERICENTER>177.9109</ARG_OF_PERICENTER><MEAN_ANOMALY>182.1898</MEAN_ANOMALY></meanElements><tleParameters><EPHEMERIS_TYPE>0</EPHEMERIS_TYPE><CLASSIFICATION_TYPE>U</CLASSIFICATION_TYPE><NORAD_CAT_ID>65774</NORAD_CAT_ID><ELEMENT_SET_NO>999</ELEMENT_SET_NO><REV_AT_EPOCH>361</REV_AT_EPOCH><BSTAR>.25447953E-2</BSTAR><MEAN_MOTION_DOT>.90783E-3</MEAN_MOTION_DOT><MEAN_MOTION_DDOT>0</MEAN_MOTION_DDOT></tleParameters></data></segment></body></omm>
<omm id="CCSDS_OMM_VERS" version="2.0">
<header><CREATION_DATE/><ORIGINATOR/></header><body><segment><metadata><OBJECT_NAME>KUIPER-00156</OBJECT_NAME><OBJECT_ID>2025-217P</OBJECT_ID><CENTER_NAME>EARTH</CENTER_NAME><REF_FRAME>TEME</REF_FRAME><TIME_SYSTEM>UTC</TIME_SYSTEM><MEAN_ELEMENT_THEORY>SGP4</MEAN_ELEMENT_THEORY></metadata><data><meanElements><EPOCH>2025-10-18T22:02:59.160192</EPOCH><MEAN_MOTION>15.37004813</MEAN_MOTION><ECCENTRICITY>.00024907</ECCENTRICITY><INCLINATION>51.8737</INCLINATION><RA_OF_ASC_NODE>329.3306</RA_OF_ASC_NODE><ARG_OF_PERICENTER>114.9634</ARG_OF_PERICENTER><MEAN_ANOMALY>245.1611</MEAN_ANOMALY></meanElements><tleParameters><EPHEMERIS_TYPE>0</EPHEMERIS_TYPE><CLASSIFICATION_TYPE>U</CLASSIFICATION_TYPE><NORAD_CAT_ID>65775</NORAD_CAT_ID><ELEMENT_SET_NO>999</ELEMENT_SET_NO><REV_AT_EPOCH>361</REV_AT_EPOCH><BSTAR>.15307338E-2</BSTAR><MEAN_MOTION_DOT>.56311E-3</MEAN_MOTION_DOT><MEAN_MOTION_DDOT>0</MEAN_MOTION_DDOT></tleParameters></data></segment></body></omm>
<omm id="CCSDS_OMM_VERS" version="2.0">
<header><CREATION_DATE/><ORIGINATOR/></header><body><segment><metadata><OBJECT_NAME>KUIPER-00158</OBJECT_NAME><OBJECT_ID>2025-217Q</OBJECT_ID><CENTER_NAME>EARTH</CENTER_NAME><REF_FRAME>TEME</REF_FRAME><TIME_SYSTEM>UTC</TIME_SYSTEM><MEAN_ELEMENT_THEORY>SGP4</MEAN_ELEMENT_THEORY></metadata><data><meanElements><EPOCH>2025-10-18T22:23:29.655168</EPOCH><MEAN_MOTION>15.35987554</MEAN_MOTION><ECCENTRICITY>.00050616</ECCENTRICITY><INCLINATION>51.8705</INCLINATION><RA_OF_ASC_NODE>329.4256</RA_OF_ASC_NODE><ARG_OF_PERICENTER>169.7389</ARG_OF_PERICENTER><MEAN_ANOMALY>190.3702</MEAN_ANOMALY></meanElements><tleParameters><EPHEMERIS_TYPE>0</EPHEMERIS_TYPE><CLASSIFICATION_TYPE>U</CLASSIFICATION_TYPE><NORAD_CAT_ID>65776</NORAD_CAT_ID><ELEMENT_SET_NO>999</ELEMENT_SET_NO><REV_AT_EPOCH>361</REV_AT_EPOCH><BSTAR>.15510378E-2</BSTAR><MEAN_MOTION_DOT>.55222E-3</MEAN_MOTION_DOT><MEAN_MOTION_DDOT>0</MEAN_MOTION_DDOT></tleParameters></data></segment></body></omm>

</ndm>
